[Satellite]
VERSION=1.1
NAME=BRITE-PL 2
NICKNAME=BRITE-PL 2
TLE1=1 40119U 14049B   20157.72645183  .00000102  00000-0  18473-4 0  9994
TLE2=2 40119  97.8942 250.0617 0018324 143.7968 216.4490 14.84506365314043
STATUS=0
